start=new Date('2023-04-22T00:00:00.000Z').valueOf();
sats=[{"OBJECT_ID":"2022-077AT","PERIAPSIS":"561.605","TLE_LINE2":"2 53084  97.6543 293.6210 0002037 206.5288 153.5832 15.01257781 42945","MEAN_ELEMENT_THEORY":"SGP4","DECAY_DATE":null,"OBJECT_NAME":"STARLINK-4319","OBJECT_TYPE":"PAYLOAD","REV_AT_EPOCH":"4294","EPHEMERIS_TYPE":"0","MEAN_MOTION_DOT":"-0.00000281","PERIOD":"95.920","LAUNCH_DATE":"2022-07-11","CENTER_NAME":"EARTH","RCS_SIZE":"LARGE","GP_ID":"230528319","TLE_LINE1":"1 53084U 22077AT  23111.74455810 -.00000281  00000-0 -17263-4 0  9996","COUNTRY_CODE":"US","SEMIMAJOR_AXIS":"6941.154","CLASSIFICATION_TYPE":"U","ARG_OF_PERICENTER":"206.5288","ECCENTRICITY":"0.00020370","INCLINATION":"97.6543","MEAN_MOTION_DDOT":"0.0000000000000","FILE":"3891716","APOAPSIS":"564.433","TIME_SYSTEM":"UTC","MEAN_MOTION":"15.01257781","SITE":"AFWTR","REF_FRAME":"TEME","BSTAR":"-0.00001726300000","ELEMENT_SET_NO":"999","EPOCH":"2023-04-21T17:52:09.819840","NORAD_CAT_ID":"53084","RA_OF_ASC_NODE":"293.6210","MEAN_ANOMALY":"153.5832"},{"PERIOD":"95.920","MEAN_MOTION_DOT":"0.00003410","LAUNCH_DATE":"2022-07-11","CENTER_NAME":"EARTH","RCS_SIZE":"LARGE","SEMIMAJOR_AXIS":"6941.151","TLE_LINE1":"1 53085U 22077AU  23111.74087168  .00003410  00000-0  26998-3 0  9993","GP_ID":"230529064","COUNTRY_CODE":"US","CLASSIFICATION_TYPE":"U","ECCENTRICITY":"0.00035650","INCLINATION":"97.6547","ARG_OF_PERICENTER":"193.8537","OBJECT_ID":"2022-077AU","PERIAPSIS":"560.541","TLE_LINE2":"2 53085  97.6547 293.6176 0003565 193.8537 166.2589 15.01258802 42948","DECAY_DATE":null,"MEAN_ELEMENT_THEORY":"SGP4","OBJECT_TYPE":"PAYLOAD","OBJECT_NAME":"STARLINK-4324","REV_AT_EPOCH":"4294","EPHEMERIS_TYPE":"0","REF_FRAME":"TEME","SITE":"AFWTR","ELEMENT_SET_NO":"999","BSTAR":"0.00026998000000","NORAD_CAT_ID":"53085","EPOCH":"2023-04-21T17:46:51.313152","RA_OF_ASC_NODE":"293.6176","MEAN_ANOMALY":"166.2589","MEAN_MOTION_DDOT":"0.0000000000000","APOAPSIS":"565.490","FILE":"3891716","TIME_SYSTEM":"UTC","MEAN_MOTION":"15.01258802"},{"PERIAPSIS":"561.690","TLE_LINE2":"2 53086  97.6546 293.6184 0001918 207.7340 152.3782 15.01256868 42945","OBJECT_ID":"2022-077AV","REV_AT_EPOCH":"4294","EPHEMERIS_TYPE":"0","DECAY_DATE":null,"MEAN_ELEMENT_THEORY":"SGP4","OBJECT_NAME":"STARLINK-4318","OBJECT_TYPE":"PAYLOAD","RCS_SIZE":"LARGE","PERIOD":"95.920","MEAN_MOTION_DOT":"-0.00000389","LAUNCH_DATE":"2022-07-11","CENTER_NAME":"EARTH","ECCENTRICITY":"0.00019180","ARG_OF_PERICENTER":"207.7340","INCLINATION":"97.6546","TLE_LINE1":"1 53086U 22077AV  23111.74270741 -.00000389  00000-0 -25699-4 0  9997","COUNTRY_CODE":"US","GP_ID":"230529814","SEMIMAJOR_AXIS":"6941.157","CLASSIFICATION_TYPE":"U","TIME_SYSTEM":"UTC","MEAN_MOTION_DDOT":"0.0000000000000","APOAPSIS":"564.353","FILE":"3891716","MEAN_MOTION":"15.01256868","ELEMENT_SET_NO":"999","BSTAR":"-0.00002569900000","NORAD_CAT_ID":"53086","EPOCH":"2023-04-21T17:49:29.920224","REF_FRAME":"TEME","SITE":"AFWTR","MEAN_ANOMALY":"152.3782","RA_OF_ASC_NODE":"293.6184"},{"MEAN_MOTION":"15.01241604","FILE":"3891716","APOAPSIS":"564.598","MEAN_MOTION_DDOT":"0.0000000000000","TIME_SYSTEM":"UTC","RA_OF_ASC_NODE":"293.3499","MEAN_ANOMALY":"149.0168","SITE":"AFWTR","REF_FRAME":"TEME","EPOCH":"2023-04-21T11:17:56.618016","NORAD_CAT_ID":"53087","BSTAR":"0.00033474000000","ELEMENT_SET_NO":"999","OBJECT_NAME":"STARLINK-4329","OBJECT_TYPE":"PAYLOAD","DECAY_DATE":null,"MEAN_ELEMENT_THEORY":"SGP4","EPHEMERIS_TYPE":"0","REV_AT_EPOCH":"4290","OBJECT_ID":"2022-077AW","TLE_LINE2":"2 53087  97.6551 293.3499 0002204 211.0926 149.0168 15.01241604 42904","PERIAPSIS":"561.539","CLASSIFICATION_TYPE":"U","SEMIMAJOR_AXIS":"6941.204","TLE_LINE1":"1 53087U 22077AW  23111.47079419  .00004241  00000-0  33474-3 0  9995","GP_ID":"230530066","COUNTRY_CODE":"US","ARG_OF_PERICENTER":"211.0926","ECCENTRICITY":"0.00022040","INCLINATION":"97.6551","LAUNCH_DATE":"2022-07-11","CENTER_NAME":"EARTH","PERIOD":"95.921","MEAN_MOTION_DOT":"0.00004241","RCS_SIZE":"LARGE"},{"SITE":"AFWTR","REF_FRAME":"TEME","BSTAR":"-0.00013021000000","ELEMENT_SET_NO":"999","EPOCH":"2023-04-21T17:44:11.698656","NORAD_CAT_ID":"53088","RA_OF_ASC_NODE":"293.6149","MEAN_ANOMALY":"171.9913","MEAN_MOTION_DDOT":"0.0000000000000","FILE":"3891716","APOAPSIS":"565.672","TIME_SYSTEM":"UTC","MEAN_MOTION":"15.01245263","PERIOD":"95.920","MEAN_MOTION_DOT":"-0.00001731","LAUNCH_DATE":"2022-07-11","CENTER_NAME":"EARTH","RCS_SIZE":"LARGE","TLE_LINE1":"1 53088U 22077AX  23111.73902429 -.00001731  00000-0 -13021-3 0  9990","COUNTRY_CODE":"US","GP_ID":"230528820","SEMIMAJOR_AXIS":"6941.192","CLASSIFICATION_TYPE":"U","ECCENTRICITY":"0.00037670","INCLINATION":"97.6556","ARG_OF_PERICENTER":"188.1251","OBJECT_ID":"2022-077AX","PERIAPSIS":"560.443","TLE_LINE2":"2 53088  97.6556 293.6149 0003767 188.1251 171.9913 15.01245263 42946","DECAY_DATE":null,"MEAN_ELEMENT_THEORY":"SGP4","OBJECT_TYPE":"PAYLOAD","OBJECT_NAME":"STARLINK-4333","REV_AT_EPOCH":"4294","EPHEMERIS_TYPE":"0"},{"MEAN_MOTION":"15.08845531","MEAN_MOTION_DDOT":"0.0000000000000","FILE":"3891716","APOAPSIS":"540.631","TIME_SYSTEM":"UTC","RA_OF_ASC_NODE":"221.0993","MEAN_ANOMALY":"248.8035","SITE":"AFETR","REF_FRAME":"TEME","BSTAR":"0.00007468700000","ELEMENT_SET_NO":"999","EPOCH":"2023-04-21T17:09:46.723104","NORAD_CAT_ID":"53132","DECAY_DATE":null,"MEAN_ELEMENT_THEORY":"SGP4","OBJECT_TYPE":"PAYLOAD","OBJECT_NAME":"STARLINK-4063","REV_AT_EPOCH":"4225","EPHEMERIS_TYPE":"0","OBJECT_ID":"2022-083A","PERIAPSIS":"538.826","TLE_LINE2":"2 53132  53.2153 221.0993 0001304 111.3096 248.8035 15.08845531 42253","GP_ID":"230528822","TLE_LINE1":"1 53132U 22083A   23111.71512411  .00000901  00000-0  74687-4 0  9995","SEMIMAJOR_AXIS":"6917.863","COUNTRY_CODE":"US","CLASSIFICATION_TYPE":"U","INCLINATION":"53.2153","ECCENTRICITY":"0.00013040","ARG_OF_PERICENTER":"111.3096","PERIOD":"95.437","MEAN_MOTION_DOT":"0.00000901","CENTER_NAME":"EARTH","LAUNCH_DATE":"2022-07-17","RCS_SIZE":"LARGE"},{"LAUNCH_DATE":"2022-07-17","CENTER_NAME":"EARTH","MEAN_MOTION_DOT":"0.00029243","PERIOD":"95.436","RCS_SIZE":"LARGE","CLASSIFICATION_TYPE":"U","TLE_LINE1":"1 53133U 22083B   23111.79976662  .00029243  00000-0  18464-2 0  9995","SEMIMAJOR_AXIS":"6917.793","GP_ID":"230528567","COUNTRY_CODE":"US","ARG_OF_PERICENTER":"84.6534","INCLINATION":"53.2168","ECCENTRICITY":"0.00010590","OBJECT_ID":"2022-083B","TLE_LINE2":"2 53133  53.2168 220.7268 0001059  84.6534 275.4579 15.08868519 42257","PERIAPSIS":"538.926","OBJECT_NAME":"STARLINK-4154","OBJECT_TYPE":"PAYLOAD","MEAN_ELEMENT_THEORY":"SGP4","DECAY_DATE":null,"EPHEMERIS_TYPE":"0","REV_AT_EPOCH":"4225","REF_FRAME":"TEME","SITE":"AFETR","NORAD_CAT_ID":"53133","EPOCH":"2023-04-21T19:11:39.835968","ELEMENT_SET_NO":"999","BSTAR":"0.00184640000000","RA_OF_ASC_NODE":"220.7268","MEAN_ANOMALY":"275.4579","APOAPSIS":"540.391","FILE":"3891716","MEAN_MOTION_DDOT":"0.0000000000000","TIME_SYSTEM":"UTC","MEAN_MOTION":"15.08868519"},{"RA_OF_ASC_NODE":"220.7750","MEAN_ANOMALY":"277.6099","REF_FRAME":"TEME","SITE":"AFETR","ELEMENT_SET_NO":"999","BSTAR":"0.00077230000000","NORAD_CAT_ID":"53134","EPOCH":"2023-04-21T18:55:45.934176","MEAN_MOTION":"15.08848873","MEAN_MOTION_DDOT":"0.0000000000000","APOAPSIS":"540.544","FILE":"3891584","TIME_SYSTEM":"UTC","SEMIMAJOR_AXIS":"6917.853","TLE_LINE1":"1 53134U 22083C   23111.78872609  .00012028  00000-0  77230-3 0  9991","GP_ID":"230502287","COUNTRY_CODE":"US","CLASSIFICATION_TYPE":"U","ECCENTRICITY":"0.00011930","INCLINATION":"53.2158","ARG_OF_PERICENTER":"82.5029","MEAN_MOTION_DOT":"0.00012028","PERIOD":"95.437","LAUNCH_DATE":"2022-07-17","CENTER_NAME":"EARTH","RCS_SIZE":"LARGE","MEAN_ELEMENT_THEORY":"SGP4","DECAY_DATE":null,"OBJECT_NAME":"STARLINK-4150","OBJECT_TYPE":"PAYLOAD","REV_AT_EPOCH":"4289","EPHEMERIS_TYPE":"0","OBJECT_ID":"2022-083C","PERIAPSIS":"538.893","TLE_LINE2":"2 53134  53.2158 220.7750 0001193  82.5029 277.6099 15.08848873 42890"},{"MEAN_ELEMENT_THEORY":"SGP4","DECAY_DATE":null,"OBJECT_NAME":"STARLINK-4023","OBJECT_TYPE":"PAYLOAD","REV_AT_EPOCH":"4325","EPHEMERIS_TYPE":"0","OBJECT_ID":"2022-083D","PERIAPSIS":"538.958","TLE_LINE2":"2 53135  53.2162 220.7362 0001056  78.6351 281.4759 15.08858627 43252","TLE_LINE1":"1 53135U 22083D   23111.79608256  .00002184  00000-0  15518-3 0  9991","GP_ID":"230529568","COUNTRY_CODE":"US","SEMIMAJOR_AXIS":"6917.823","CLASSIFICATION_TYPE":"U","ECCENTRICITY":"0.00010560","INCLINATION":"53.2162","ARG_OF_PERICENTER":"78.6351","MEAN_MOTION_DOT":"0.00002184","PERIOD":"95.436","LAUNCH_DATE":"2022-07-17","CENTER_NAME":"EARTH","RCS_SIZE":"LARGE","MEAN_MOTION":"15.08858627","MEAN_MOTION_DDOT":"0.0000000000000","APOAPSIS":"540.419","FILE":"3891716","TIME_SYSTEM":"UTC","RA_OF_ASC_NODE":"220.7362","MEAN_ANOMALY":"281.4759","REF_FRAME":"TEME","SITE":"AFETR","ELEMENT_SET_NO":"999","BSTAR":"0.00015518000000","NORAD_CAT_ID":"53135","EPOCH":"2023-04-21T19:06:21.533184"},{"MEAN_ANOMALY":"269.5709","RA_OF_ASC_NODE":"221.6504","EPOCH":"2023-04-21T14:14:54.864384","NORAD_CAT_ID":"53136","BSTAR":"0.00006189200000","ELEMENT_SET_NO":"999","SITE":"AFETR","REF_FRAME":"TEME","MEAN_MOTION":"15.08835229","TIME_SYSTEM":"UTC","FILE":"3891529","APOAPSIS":"540.793","MEAN_MOTION_DDOT":"0.0000000000000","ECCENTRICITY":"0.00014930","INCLINATION":"53.2171","ARG_OF_PERICENTER":"90.5454","CLASSIFICATION_TYPE":"U","TLE_LINE1":"1 53136U 22083E   23111.59369056  .00000697  00000-0  61892-4 0  9996","GP_ID":"230498674","SEMIMAJOR_AXIS":"6917.895","COUNTRY_CODE":"US","RCS_SIZE":"LARGE","CENTER_NAME":"EARTH","LAUNCH_DATE":"2022-07-17","PERIOD":"95.438","MEAN_MOTION_DOT":"0.00000697","EPHEMERIS_TYPE":"0","REV_AT_EPOCH":"4322","OBJECT_NAME":"STARLINK-4152","OBJECT_TYPE":"PAYLOAD","MEAN_ELEMENT_THEORY":"SGP4","DECAY_DATE":null,"TLE_LINE2":"2 53136  53.2171 221.6504 0001493  90.5454 269.5709 15.08835229 43225","PERIAPSIS":"538.727","OBJECT_ID":"2022-083E"}];
